NORAD_CAT_ID,OBJECT_NAME,OBJECT_TYPE,EPOCH,MEAN_MOTION,ECCENTRICITY,INCLINATION,RA_OF_ASC_NODE,ARG_OF_PERICENTER,MEAN_ANOMALY,BSTAR,MEAN_MOTION_DOT,MEAN_MOTION_DDOT,TLE_LINE0,TLE_LINE1,TLE_LINE2,SEMIMAJOR_AXIS,PERIOD,APOGEE,PERIGEE,DECAYED
52452.0,STARLINK-3909,PAYLOAD,2023-03-25 03:51:20,15.0886123,0.0001323,53.2159,239.8059,64.8761,295.2368,3.5016e-06,-2.32e-06,0.0,0 STARLINK-3909,1 52452U 22049B   23084.16065153 -.00000232  00000-0  35016-5 0  9997,2 52452  53.2159 239.8059 0001323  64.8761 295.2368 15.08861230 49149,6917.815,95.436,540.596,538.765,0.0
52452.0,STARLINK-3909,PAYLOAD,2023-03-25 10:12:53,15.08822889,0.0001452,53.2151,238.6168,75.2028,284.9125,-0.00083191,-0.00013497,0.0,0 STARLINK-3909,1 52452U 22049B   23084.42562259 -.00013497  00000-0 -83191-3 0  9998,2 52452  53.2151 238.6168 0001452  75.2028 284.9125 15.08822889 49181,6917.933,95.439,540.802,538.793,0.0
52452.0,STARLINK-3909,PAYLOAD,2023-03-25 16:34:26,15.08811284,7.97e-05,53.2147,237.4257,90.6531,269.4552,-0.00077151,-0.00012535,0.0,0 STARLINK-3909,1 52452U 22049B   23084.69058403 -.00012535  00000-0 -77151-3 0  9999,2 52452  53.2147 237.4257 0000797  90.6531 269.4552 15.08811284 49069,6917.968,95.439,540.385,539.282,0.0
52452.0,STARLINK-3909,PAYLOAD,2023-03-26 13:14:28,15.08832763,0.0001029,53.214,233.5597,96.8159,263.295,0.0014299,0.00022538,0.0,0 STARLINK-3909,1 52452U 22049B   23085.55172239  .00022538  00000-0  14299-2 0  9994,2 52452  53.2140 233.5597 0001029  96.8159 263.2950 15.08832763 49350,6917.903,95.438,540.479,539.056,0.0
52452.0,STARLINK-3909,PAYLOAD,2023-03-26 16:25:15,15.08840924,0.0001012,53.2142,232.9656,90.9819,269.1289,0.0016227,0.00025632,0.0,0 STARLINK-3909,1 52452U 22049B   23085.68420252  .00025632  00000-0  16227-2 0  9990,2 52452  53.2142 232.9656 0001012  90.9819 269.1289 15.08840924 49214,6917.878,95.437,540.443,539.042,0.0
52452.0,STARLINK-3909,PAYLOAD,2023-03-27 13:05:15,15.08854034,0.0001037,53.214,229.099,87.6178,272.4933,0.0011116,0.00017454,0.0,0 STARLINK-3909,1 52452U 22049B   23086.54532162  .00017454  00000-0  11116-2 0  9995,2 52452  53.2140 229.0990 0001037  87.6178 272.4933 15.08854034 49500,6917.837,95.437,540.42,538.985,0.0
52452.0,STARLINK-3909,PAYLOAD,2023-03-27 14:40:38,15.08854011,0.0001023,53.2142,228.8022,89.3781,270.7328,0.00080043,0.00012479,0.0,0 STARLINK-3909,1 52452U 22049B   23086.61156051  .00012479  00000-0  80043-3 0  9990,2 52452  53.2142 228.8022 0001023  89.3781 270.7328 15.08854011 49356,6917.838,95.437,540.41,538.995,0.0
52452.0,STARLINK-3909,PAYLOAD,2023-03-27 16:16:01,15.08856362,0.0001003,53.2144,228.5046,90.3337,269.777,0.00082865,0.00012931,0.0,0 STARLINK-3909,1 52452U 22049B   23086.67779954  .00012931  00000-0  82865-3 0  9996,2 52452  53.2144 228.5046 0001003  90.3337 269.7770 15.08856362 49369,6917.83,95.437,540.389,539.002,0.0
52452.0,STARLINK-3909,PAYLOAD,2023-03-28 14:31:25,15.08846661,0.0001175,53.2154,224.3422,89.9886,270.1241,0.00030012,4.493e-05,0.0,0 STARLINK-3909,1 52452U 22049B   23087.60516004  .00004493  00000-0  30012-3 0  9996,2 52452  53.2154 224.3422 0001175  89.9886 270.1241 15.08846661 49668,6917.86,95.437,540.538,538.912,0.0
52452.0,STARLINK-3909,PAYLOAD,2023-03-29 12:46:49,15.08847877,0.0001648,53.2169,220.1845,118.8231,241.2927,1.0212e-05,-1.26e-06,0.0,0 STARLINK-3909,1 52452U 22049B   23088.53251750 -.00000126  00000-0  10212-4 0  9994,2 52452  53.2169 220.1845 0001648 118.8231 241.2927 15.08847877 49646,6917.856,95.437,540.861,538.581,0.0
52452.0,STARLINK-3909,PAYLOAD,2023-03-29 19:08:21,15.0886021,0.0001176,53.2149,218.99,95.2849,264.8277,0.00038312,5.818e-05,0.0,0 STARLINK-3909,1 52452U 22049B   23088.79747031  .00005818  00000-0  38312-3 0  9996,2 52452  53.2149 218.9900 0001176  95.2849 264.8277 15.08860210 49847,6917.819,95.436,540.497,538.87,0.0
52452.0,STARLINK-3909,PAYLOAD,2023-03-30 07:51:27,15.08831156,0.0001251,53.2149,216.6094,87.8886,272.225,-0.00015524,-2.757e-05,0.0,0 STARLINK-3909,1 52452U 22049B   23089.32740284 -.00002757  00000-0 -15524-3 0  9990,2 52452  53.2149 216.6094 0001251  87.8886 272.2250 15.08831156 49928,6917.907,95.438,540.638,538.907,0.0
52452.0,STARLINK-3909,PAYLOAD,2023-03-30 15:48:23,15.08846245,0.0001551,53.2155,215.1228,84.7946,275.3223,0.0002854,4.258e-05,0.0,0 STARLINK-3909,1 52452U 22049B   23089.65859972  .00004258  00000-0  28540-3 0  9999,2 52452  53.2155 215.1228 0001551  84.7946 275.3223 15.08846245 49978,6917.861,95.437,540.799,538.653,0.0
52452.0,STARLINK-3909,PAYLOAD,2023-04-01 01:11:28,15.08848156,0.0001736,53.2148,208.8803,73.4774,286.6409,0.0002224,3.254e-05,0.0,0 STARLINK-3909,1 52452U 22049B   23091.04963666  .00003254  00000-0  22240-3 0  9997,2 52452  53.2148 208.8803 0001736  73.4774 286.6409 15.08848156 50186,6917.855,95.437,540.921,538.52,0.0
52452.0,STARLINK-3909,PAYLOAD,2023-04-01 12:19:11,15.08832219,0.0001637,53.2143,206.7987,68.7232,291.3935,-7.8128e-05,-1.531e-05,0.0,0 STARLINK-3909,1 52452U 22049B   23091.51332471 -.00001531  00000-0 -78128-4 0  9998,2 52452  53.2143 206.7987 0001637  68.7232 291.3935 15.08832219 50097,6917.904,95.438,540.902,538.637,0.0
52452.0,STARLINK-3909,PAYLOAD,2023-04-01 13:54:34,15.08833979,0.0001743,53.2146,206.5014,70.717,289.401,-3.136e-05,-7.87e-06,0.0,0 STARLINK-3909,1 52452U 22049B   23091.57956469 -.00000787  00000-0 -31360-4 0  9992,2 52452  53.2146 206.5014 0001743  70.7170 289.4010 15.08833979 50266,6917.899,95.438,540.97,538.558,0.0
52452.0,STARLINK-3909,PAYLOAD,2023-04-02 13:45:21,15.08848532,0.000133,53.2155,202.0406,71.6595,288.4542,0.00025455,3.766e-05,0.0,0 STARLINK-3909,1 52452U 22049B   23092.57315983  .00003766  00000-0  25455-3 0  9998,2 52452  53.2155 202.0406 0001330  71.6595 288.4542 15.08848532 50412,6917.854,95.437,540.639,538.799,0.0
52452.0,STARLINK-3909,PAYLOAD,2023-04-03 12:00:45,15.08835791,0.0001321,53.2156,197.8782,104.2952,255.8187,0.00012227,1.658e-05,0.0,0 STARLINK-3909,1 52452U 22049B   23093.50052831  .00001658  00000-0  12227-3 0  9993,2 52452  53.2156 197.8782 0001321 104.2952 255.8187 15.08835791 50552,6917.893,95.438,540.672,538.844,0.0
52452.0,STARLINK-3909,PAYLOAD,2023-04-03 16:46:55,15.08835492,0.0001417,53.2147,196.9808,112.196,247.9182,0.00010824,1.435e-05,0.0,0 STARLINK-3909,1 52452U 22049B   23093.69924868  .00001435  00000-0  10824-3 0  9995,2 52452  53.2147 196.9808 0001417 112.1960 247.9182 15.08835492 50425,6917.894,95.438,540.739,538.779,0.0
52452.0,STARLINK-3909,PAYLOAD,2023-04-04 11:51:32,15.08848752,0.0001366,53.2142,193.4146,95.0084,265.1064,0.00038985,5.923e-05,0.0,0 STARLINK-3909,1 52452U 22049B   23094.49412688  .00005923  00000-0  38985-3 0  9990,2 52452  53.2142 193.4146 0001366  95.0084 265.1064 15.08848752 50543,6917.854,95.437,540.664,538.774,0.0
52452.0,STARLINK-3909,PAYLOAD,2023-04-05 05:20:47,15.08842094,0.0001818,53.2154,190.1441,113.9682,246.1501,0.00016493,2.338e-05,0.0,0 STARLINK-3909,1 52452U 22049B   23095.22276913  .00002338  00000-0  16493-3 0  9998,2 52452  53.2154 190.1441 0001818 113.9682 246.1501 15.08842094 50812,6917.874,95.437,540.997,538.481,0.0
52452.0,STARLINK-3909,PAYLOAD,2023-04-05 11:42:19,15.08839472,0.0001397,53.2149,188.9529,118.9935,241.1197,0.00010693,1.414e-05,0.0,0 STARLINK-3909,1 52452U 22049B   23095.48773011  .00001414  00000-0  10693-3 0  9997,2 52452  53.2149 188.9529 0001397 118.9935 241.1197 15.08839472 50694,6917.882,95.438,540.713,538.781,0.0
52452.0,STARLINK-3909,PAYLOAD,2023-04-06 09:57:43,15.08843424,0.0001255,53.2156,184.7914,108.2031,251.9098,0.00018485,2.655e-05,0.0,0 STARLINK-3909,1 52452U 22049B   23096.41509040  .00002655  00000-0  18485-3 0  9995,2 52452  53.2156 184.7914 0001255 108.2031 251.9098 15.08843424 50990,6917.87,95.437,540.603,538.867,0.0
52452.0,STARLINK-3909,PAYLOAD,2023-04-06 11:33:06,15.08843778,0.0001303,53.2157,184.494,109.3555,250.7579,0.00020353,2.953e-05,0.0,0 STARLINK-3909,1 52452U 22049B   23096.48133024  .00002953  00000-0  20353-3 0  9995,2 52452  53.2157 184.4940 0001303 109.3555 250.7579 15.08843778 50841,6917.869,95.437,540.635,538.832,0.0
52452.0,STARLINK-3909,PAYLOAD,2023-04-06 16:19:16,15.08848432,0.0001356,53.2153,183.6009,107.1853,252.9288,0.00037254,5.647e-05,0.0,0 STARLINK-3909,1 52452U 22049B   23096.68004782  .00005647  00000-0  37254-3 0  9996,2 52452  53.2153 183.6009 0001356 107.1853 252.9288 15.08848432 50875,6917.855,95.437,540.658,538.782,0.0
52452.0,STARLINK-3909,PAYLOAD,2023-04-07 06:37:44,15.08839008,0.0001151,53.2149,180.9255,101.9285,258.1836,8.3345e-05,1.039e-05,0.0,0 STARLINK-3909,1 52452U 22049B   23097.27621178  .00001039  00000-0  83345-4 0  9990,2 52452  53.2149 180.9255 0001151 101.9285 258.1836 15.08839008 51122,6917.883,95.438,540.545,538.952,0.0
52452.0,STARLINK-3909,PAYLOAD,2023-04-07 11:23:53,15.08845323,0.0001195,53.215,180.0335,101.0399,259.0728,0.0002158,3.149e-05,0.0,0 STARLINK-3909,1 52452U 22049B   23097.47492998  .00003149  00000-0  21580-3 0  9994,2 52452  53.2150 180.0335 0001195 101.0399 259.0728 15.08845323 50990,6917.864,95.437,540.556,538.902,0.0
52452.0,STARLINK-3909,PAYLOAD,2023-04-07 14:34:40,15.08849685,0.0001169,53.2144,179.4384,98.1221,261.9904,0.00030548,4.578e-05,0.0,0 STARLINK-3909,1 52452U 22049B   23097.60740832  .00004578  00000-0  30548-3 0  9993,2 52452  53.2144 179.4384 0001169  98.1221 261.9904 15.08849685 51174,6917.851,95.437,540.524,538.907,0.0
52452.0,STARLINK-3909,PAYLOAD,2023-04-08 04:53:08,15.08845604,0.0001432,53.2137,176.7621,89.8252,270.2904,0.00027968,4.167e-05,0.0,0 STARLINK-3909,1 52452U 22049B   23098.20357022  .00004167  00000-0  27968-3 0  9991,2 52452  53.2137 176.7621 0001432  89.8252 270.2904 15.08845604 51264,6917.863,95.437,540.719,538.738,0.0
52452.0,STARLINK-3909,PAYLOAD,2023-04-08 12:50:04,15.08845751,0.0001282,53.2138,175.2759,87.8704,272.2435,0.00032656,4.914e-05,0.0,0 STARLINK-3909,1 52452U 22049B   23098.53476967  .00004914  00000-0  32656-3 0  9997,2 52452  53.2138 175.2759 0001282  87.8704 272.2435 15.08845751 51156,6917.863,95.437,540.615,538.841,0.0
